{"type": "FeatureCollection", "features": [ {"type": "Feature", "properties": {"norad_id": 44622, "name": "GAOFEN-10R", "group": "resource", "lat": -23.526184829106704, "lon": -60.353274625594985, "alt_km": 623.2776305397119, "timestamp": "2025-12-14T14:39:29.034142+00:00", "meta": {"OBJECT_NAME": "GAOFEN-10R", "OBJECT_ID": "2019-066A", "EPOCH": "2025-12-14T00:11:20.547744", "MEAN_MOTION": 14.82798855, "ECCENTRICITY": 0.00077958, "INCLINATION": 98.0275, "RA_OF_ASC_NODE": 295.5191, "ARG_OF_PERICENTER": 38.3889, "MEAN_ANOMALY": 321.7877, "EPHEMERIS_TYPE": 0, "CLASSIFICATION_TYPE": "U", "NORAD_CAT_ID": 44622, "ELEMENT_SET_NO": 999, "REV_AT_EPOCH": 33493, "BSTAR": 0.00030547599, "MEAN_MOTION_DOT": 2.417e-05, "MEAN_MOTION_DDOT": 0}, "tle": {"line1": "1 44622U 19066A   25348.00787671  .00002417  00000+0  30548-3 0  9994", "line2": "2 44622  98.0275 295.5191 0007795  38.3889 321.7877 14.82798855334934"}}, "geometry": {"type": "Point", "coordinates": [-60.353274625594985, -23.526184829106704]}}, {"type": "Feature", "properties": {"norad_id": 44804, "name": "CARTOSAT-3", "group": "resource", "lat": 23.838989402512166, "lon": 44.85156849232398, "alt_km": 501.9576067227026, "timestamp": "2025-12-14T14:39:29.034152+00:00", "meta": {"OBJECT_NAME": "CARTOSAT-3", "OBJECT_ID": "2019-081A", "EPOCH": "2025-12-13T22:44:40.058304", "MEAN_MOTION": 15.19166644, "ECCENTRICITY": 0.00142037, "INCLINATION": 97.4585, "RA_OF_ASC_NODE": 47.5155, "ARG_OF_PERICENTER": 79.3057, "MEAN_ANOMALY": 280.9776, "EPHEMERIS_TYPE": 0, "CLASSIFICATION_TYPE": "U", "NORAD_CAT_ID": 44804, "ELEMENT_SET_NO": 999, "REV_AT_EPOCH": 33534, "BSTAR": 0.00028089385, "MEAN_MOTION_DOT": 5.853e-05, "MEAN_MOTION_DDOT": 0}, "tle": {"line1": "1 44804U 19081A   25347.94768586  .00005853  00000+0  28089-3 0  9993", "line2": "2 44804  97.4585  47.5155 0014203  79.3057 280.9776 15.19166644335348"}}, "geometry": {"type": "Point", "coordinates": [44.85156849232398, 23.838989402512166]}}, {"type": "Feature", "properties": {"norad_id": 44819, "name": "GAOFEN-12 01", "group": "resource", "lat": -48.50296252023526, "lon": 165.91403143062234, "alt_km": 633.1376577034362, "timestamp": "2025-12-14T14:39:29.034162+00:00", "meta": {"OBJECT_NAME": "GAOFEN-12 01", "OBJECT_ID": "2019-082A", "EPOCH": "2025-12-14T00:39:05.823936", "MEAN_MOTION": 14.80659159, "ECCENTRICITY": 0.00013965, "INCLINATION": 97.8126, "RA_OF_ASC_NODE": 354.2744, "ARG_OF_PERICENTER": 225.4832, "MEAN_ANOMALY": 134.6266, "EPHEMERIS_TYPE": 0, "CLASSIFICATION_TYPE": "U", "NORAD_CAT_ID": 44819, "ELEMENT_SET_NO": 999, "REV_AT_EPOCH": 32669, "BSTAR": 9.9662482e-05, "MEAN_MOTION_DOT": 7.15e-06, "MEAN_MOTION_DDOT": 0}, "tle": {"line1": "1 44819U 19082A   25348.02715074  .00000715  00000+0  99662-4 0  9992", "line2": "2 44819  97.8126 354.2744 0001396 225.4832 134.6266 14.80659159326697"}}, "geometry": {"type": "Point", "coordinates": [165.91403143062234, -48.50296252023526]}}, {"type": "Feature", "properties": {"norad_id": 44873, "name": "CSG-1", "group": "resource", "lat": -9.925563720055447, "lon": 171.2955023097526, "alt_km": 626.7594832461182, "timestamp": "2025-12-14T14:39:29.034172+00:00", "meta": {"OBJECT_NAME": "CSG-1", "OBJECT_ID": "2019-092A", "EPOCH": "2025-12-14T00:07:15.633984", "MEAN_MOTION": 14.82166612, "ECCENTRICITY": 0.00014406, "INCLINATION": 97.881, "RA_OF_ASC_NODE": 169.3102, "ARG_OF_PERICENTER": 84.813, "MEAN_ANOMALY": 275.3248, "EPHEMERIS_TYPE": 0, "CLASSIFICATION_TYPE": "U", "NORAD_CAT_ID": 44873, "ELEMENT_SET_NO": 999, "REV_AT_EPOCH": 32404, "BSTAR": 0.00011606561, "MEAN_MOTION_DOT": 8.72e-06, "MEAN_MOTION_DDOT": 0}, "tle": {"line1": "1 44873U 19092A   25348.00504206  .00000872  00000+0  11607-3 0  9990", "line2": "2 44873  97.8810 169.3102 0001440  84.8130 275.3248 14.82166612324047"}}, "geometry": {"type": "Point", "coordinates": [171.2955023097526, -9.925563720055447]}}, {"type": "Feature", "properties": {"norad_id": 46277, "name": "NEMO-HD", "group": "resource", "lat": -0.25901315459926816, "lon": -132.34805118924808, "alt_km": 448.90038772682874, "timestamp": "2025-12-14T14:39:29.034182+00:00", "meta": {"OBJECT_NAME": "NEMO-HD", "OBJECT_ID": "2020-061F", "EPOCH": "2025-12-13T23:50:48.634080", "MEAN_MOTION": 15.40361805, "ECCENTRICITY": 0.00018146, "INCLINATION": 97.2215, "RA_OF_ASC_NODE": 47.0754, "ARG_OF_PERICENTER": 55.273, "MEAN_ANOMALY": 304.8688, "EPHEMERIS_TYPE": 0, "CLASSIFICATION_TYPE": "U", "NORAD_CAT_ID": 46277, "ELEMENT_SET_NO": 999, "REV_AT_EPOCH": 29343, "BSTAR": 0.00031243853, "MEAN_MOTION_DOT": 0.00012539, "MEAN_MOTION_DDOT": 0}, "tle": {"line1": "1 46277U 20061F   25347.99361845  .00012539  00000+0  31244-3 0  9997", "line2": "2 46277  97.2215  47.0754 0001814  55.2730 304.8688 15.40361805293438"}}, "geometry": {"type": "Point", "coordinates": [-132.34805118924808, -0.25901315459926816]}}, {"type": "Feature", "properties": {"norad_id": 46984, "name": "SENTINEL-6A", "group": "resource", "lat": 65.74289173026091, "lon": -120.90237141218965, "alt_km": 1336.4108319404777, "timestamp": "2025-12-14T14:39:29.034192+00:00", "meta": {"OBJECT_NAME": "SENTINEL-6A", "OBJECT_ID": "2020-086A", "EPOCH": "2025-12-13T21:20:42.508896", "MEAN_MOTION": 12.80930683, "ECCENTRICITY": 0.0007731, "INCLINATION": 66.0389, "RA_OF_ASC_NODE": 159.9202, "ARG_OF_PERICENTER": 269.234, "MEAN_ANOMALY": 90.7789, "EPHEMERIS_TYPE": 0, "CLASSIFICATION_TYPE": "U", "NORAD_CAT_ID": 46984, "ELEMENT_SET_NO": 999, "REV_AT_EPOCH": 23659, "BSTAR": 0.00016831845, "MEAN_MOTION_DOT": -2.2e-07, "MEAN_MOTION_DDOT": 0}, "tle": {"line1": "1 46984U 20086A   25347.88938089 -.00000022  00000+0  16832-3 0  9998", "line2": "2 46984  66.0389 159.9202 0007731 269.2340  90.7789 12.80930683236592"}}, "geometry": {"type": "Point", "coordinates": [-120.90237141218965, 65.74289173026091]}}, {"type": "Feature", "properties": {"norad_id": 48079, "name": "GAOFEN-12 02", "group": "resource", "lat": -59.58480362409274, "lon": 148.7739414339517, "alt_km": 636.3428858109382, "timestamp": "2025-12-14T14:39:29.034203+00:00", "meta": {"OBJECT_NAME": "GAOFEN-12 02", "OBJECT_ID": "2021-026A", "EPOCH": "2025-12-14T00:36:01.879200", "MEAN_MOTION": 14.80677059, "ECCENTRICITY": 0.00035676, "INCLINATION": 97.9852, "RA_OF_ASC_NODE": 342.0252, "ARG_OF_PERICENTER": 98.5489, "MEAN_ANOMALY": 261.6127, "EPHEMERIS_TYPE": 0, "CLASSIFICATION_TYPE": "U", "NORAD_CAT_ID": 48079, "ELEMENT_SET_NO": 999, "REV_AT_EPOCH": 25436, "BSTAR": 0.0001023129, "MEAN_MOTION_DOT": 7.34e-06, "MEAN_MOTION_DDOT": 0}, "tle": {"line1": "1 48079U 21026A   25348.02502175  .00000734  00000+0  10231-3 0  9996", "line2": "2 48079  97.9852 342.0252 0003567  98.5489 261.6127 14.80677059254364"}}, "geometry": {"type": "Point", "coordinates": [148.7739414339517, -59.58480362409274]}}, {"type": "Feature", "properties": {"norad_id": 48268, "name": "PLEIADES NEO 3", "group": "resource", "lat": -45.391053608061505, "lon": 69.11019194947039, "alt_km": 631.4631312705023, "timestamp": "2025-12-14T14:39:29.034212+00:00", "meta": {"OBJECT_NAME": "PLEIADES NEO 3", "OBJECT_ID": "2021-034A", "EPOCH": "2025-12-13T22:39:26.415936", "MEAN_MOTION": 14.81674885, "ECCENTRICITY": 0.0001314, "INCLINATION": 97.8942, "RA_OF_ASC_NODE": 60.3672, "ARG_OF_PERICENTER": 92.6834, "MEAN_ANOMALY": 267.4529, "EPHEMERIS_TYPE": 0, "CLASSIFICATION_TYPE": "U", "NORAD_CAT_ID": 48268, "ELEMENT_SET_NO": 999, "REV_AT_EPOCH": 25022, "BSTAR": 0.00018515011, "MEAN_MOTION_DOT": 1.405e-05, "MEAN_MOTION_DDOT": 0}, "tle": {"line1": "1 48268U 21034A   25347.94405574  .00001405  00000+0  18515-3 0  9999", "line2": "2 48268  97.8942  60.3672 0001314  92.6834 267.4529 14.81674885250222"}}, "geometry": {"type": "Point", "coordinates": [69.11019194947039, -45.391053608061505]}}, {"type": "Feature", "properties": {"norad_id": 49070, "name": "PLEIADES NEO 4", "group": "resource", "lat": 45.124760247691164, "lon": -110.96905603346191, "alt_km": 619.6174752556517, "timestamp": "2025-12-14T14:39:29.034223+00:00", "meta": {"OBJECT_NAME": "PLEIADES NEO 4", "OBJECT_ID": "2021-073E", "EPOCH": "2025-12-12T08:34:07.569120", "MEAN_MOTION": 14.81676895, "ECCENTRICITY": 0.00012379, "INCLINATION": 97.8941, "RA_OF_ASC_NODE": 58.7994, "ARG_OF_PERICENTER": 92.1719, "MEAN_ANOMALY": 267.9635, "EPHEMERIS_TYPE": 0, "CLASSIFICATION_TYPE": "U", "NORAD_CAT_ID": 49070, "ELEMENT_SET_NO": 999, "REV_AT_EPOCH": 23370, "BSTAR": 3.8133e-06, "MEAN_MOTION_DOT": -2.2e-07, "MEAN_MOTION_DDOT": 0}, "tle": {"line1": "1 49070U 21073E   25346.35703205 -.00000022  00000+0  38133-5 0  9995", "line2": "2 49070  97.8941  58.7994 0001237  92.1719 267.9635 14.81676895233702"}}, "geometry": {"type": "Point", "coordinates": [-110.96905603346191, 45.124760247691164]}}, {"type": "Feature", "properties": {"norad_id": 49260, "name": "LANDSAT 9", "group": "resource", "lat": -14.351117385512943, "lon": 58.81140153670802, "alt_km": 707.3603043411795, "timestamp": "2025-12-14T14:39:29.034233+00:00", "meta": {"OBJECT_NAME": "LANDSAT 9", "OBJECT_ID": "2021-088A", "EPOCH": "2025-12-13T18:56:50.923392", "MEAN_MOTION": 14.57099361, "ECCENTRICITY": 0.0001175, "INCLINATION": 98.2094, "RA_OF_ASC_NODE": 55.8854, "ARG_OF_PERICENTER": 89.5208, "MEAN_ANOMALY": 270.6125, "EPHEMERIS_TYPE": 0, "CLASSIFICATION_TYPE": "U", "NORAD_CAT_ID": 49260, "ELEMENT_SET_NO": 999, "REV_AT_EPOCH": 22400, "BSTAR": 0.00015323543, "MEAN_MOTION_DOT": 6.45e-06, "MEAN_MOTION_DDOT": 0}, "tle": {"line1": "1 49260U 21088A   25347.78947828  .00000645  00000+0  15324-3 0  9996", "line2": "2 49260  98.2094  55.8854 0001175  89.5208 270.6125 14.57099361224002"}}, "geometry": {"type": "Point", "coordinates": [58.81140153670802, -14.351117385512943]}}]}